IRIDIUM 39              
1 25042U 97069D   25357.09358690  .00000659  00000+0  16611-3 0  9993
2 25042  86.3923 130.1911 0018900  40.9665 319.2955 14.49519382476322
IRIDIUM 38              
1 25043U 97069E   25356.92626403  .00000466  00000+0  14673-3 0  9997
2 25043  86.3977 153.8243 0002347 143.2685 216.8674 14.38323313473084
IRIDIUM 42              
1 25077U 97077A   25356.88641416  .00000422  00000+0  13716-3 0  9998
2 25077  86.3980 160.2411 0001698 113.6507 246.4869 14.36540432468288
IRIDIUM 44              
1 25078U 97077B   25356.88689709  .00000442  00000+0  13294-3 0  9999
2 25078  86.3972 141.6732 0003758 108.9782 251.1825 14.40440249470862
IRIDIUM 45              
1 25104U 97082A   25356.86801008  .00034974  00000+0  97799-3 0  9990
2 25104  86.3550 315.6842 0096167 342.7576  17.0412 15.31899324480825
IRIDIUM 24              
1 25105U 97082B   25356.96178358  .00000434  00000+0  12543-3 0  9995
2 25105  86.3907   0.2141 0011812 163.3960 196.7630 14.42336828470427
IRIDIUM 51              
1 25262U 98018A   25356.95272170  .00103391  00000+0  10272-2 0  9997
2 25262  86.3733 320.9911 0045975 229.4488 130.2773 15.64045236476243
IRIDIUM 57              
1 25273U 98019B   25357.15434503  .00000352  00000+0  11429-3 0  9992
2 25273  86.3949  66.0217 0002210  98.1429 262.0018 14.36058705451907
